NORAD_CAT_ID,OBJECT_NAME,OBJECT_TYPE,EPOCH,MEAN_MOTION,ECCENTRICITY,INCLINATION,RA_OF_ASC_NODE,ARG_OF_PERICENTER,MEAN_ANOMALY,BSTAR,MEAN_MOTION_DOT,MEAN_MOTION_DDOT,TLE_LINE0,TLE_LINE1,TLE_LINE2,SEMIMAJOR_AXIS,PERIOD,APOGEE,PERIGEE,DECAYED
53541.0,STARLINK-4485,PAYLOAD,2023-12-24 13:48:26,15.08849007,0.0001268,53.2171,92.9094,76.2657,283.8476,0.00018015,2.581e-05,0.0,0 STARLINK-4485,1 53541U 22101Q   23358.57530574  .00002581  00000-0  18015-3 0  9995,2 53541  53.2171  92.9094 0001268  76.2657 283.8476 15.08849007 75161,6917.853,95.437,540.595,538.841,0.0
53541.0,STARLINK-4485,PAYLOAD,2023-12-24 16:59:12,15.0885643,0.0001241,53.2173,92.3139,83.2732,276.8401,0.0002427,3.578e-05,0.0,0 STARLINK-4485,1 53541U 22101Q   23358.70777904  .00003578  00000-0  24270-3 0  9997,2 53541  53.2173  92.3139 0001241  83.2732 276.8401 15.08856430 74493,6917.83,95.437,540.554,538.837,0.0
53541.0,STARLINK-4485,PAYLOAD,2023-12-25 12:03:51,15.08834929,0.0001384,53.2165,88.7475,92.5592,267.5558,4.8573e-05,4.85e-06,0.0,0 STARLINK-4485,1 53541U 22101Q   23359.50268022  .00000485  00000-0  48573-4 0  9999,2 53541  53.2165  88.7475 0001384  92.5592 267.5558 15.08834929 74614,6917.896,95.438,540.718,538.803,0.0
53541.0,STARLINK-4485,PAYLOAD,2023-12-25 13:39:14,15.0883697,0.0001483,53.217,88.4496,92.7917,267.3245,1.1304e-05,-1.08e-06,0.0,0 STARLINK-4485,1 53541U 22101Q   23359.56891525 -.00000108  00000-0  11304-4 0  9990,2 53541  53.2170  88.4496 0001483  92.7917 267.3245 15.08836970 75310,6917.89,95.438,540.781,538.729,0.0
53541.0,STARLINK-4485,PAYLOAD,2023-12-26 11:54:38,15.0883838,0.0001527,53.2177,84.2872,69.0408,291.0747,2.4482e-05,1.02e-06,0.0,0 STARLINK-4485,1 53541U 22101Q   23360.49628256  .00000102  00000-0  24482-4 0  9997,2 53541  53.2177  84.2872 0001527  69.0408 291.0747 15.08838380 75453,6917.885,95.438,540.807,538.694,0.0
53541.0,STARLINK-4485,PAYLOAD,2023-12-27 11:45:25,15.08835967,0.0001583,53.2187,79.8267,74.4684,285.6483,0.0002982,4.461e-05,0.0,0 STARLINK-4485,1 53541U 22101Q   23361.48987845  .00004461  00000-0  29820-3 0  9991,2 53541  53.2187  79.8267 0001583  74.4684 285.6483 15.08835967 74914,6917.893,95.438,540.853,538.663,0.0
53541.0,STARLINK-4485,PAYLOAD,2023-12-28 11:36:12,15.0883976,0.0001505,53.2176,75.3664,81.5139,278.6024,0.00011698,1.574e-05,0.0,0 STARLINK-4485,1 53541U 22101Q   23362.48347889  .00001574  00000-0  11698-3 0  9996,2 53541  53.2176  75.3664 0001505  81.5139 278.6024 15.08839760 75753,6917.881,95.438,540.787,538.705,0.0
53541.0,STARLINK-4485,PAYLOAD,2023-12-29 11:26:59,15.08843511,0.0001463,53.2172,70.9039,95.7296,264.3863,-4.1601e-05,-9.5e-06,0.0,0 STARLINK-4485,1 53541U 22101Q   23363.47707973 -.00000950  00000-0 -41601-4 0  9997,2 53541  53.2172  70.9039 0001463  95.7296 264.3863 15.08843511 75909,6917.87,95.437,540.747,538.723,0.0
53541.0,STARLINK-4485,PAYLOAD,2023-12-30 11:17:46,15.08840304,0.0001444,53.217,66.4436,93.5203,266.5954,5.1428e-05,5.31e-06,0.0,0 STARLINK-4485,1 53541U 22101Q   23364.47067916  .00000531  00000-0  51428-4 0  9995,2 53541  53.2170  66.4436 0001444  93.5203 266.5954 15.08840304 75363,6917.879,95.438,540.743,538.746,0.0
53541.0,STARLINK-4485,PAYLOAD,2023-12-30 14:28:32,15.08842618,0.0001453,53.2171,65.8481,97.6928,262.4229,6.3257e-05,7.19e-06,0.0,0 STARLINK-4485,1 53541U 22101Q   23364.60315701  .00000719  00000-0  63257-4 0  9999,2 53541  53.2171  65.8481 0001453  97.6928 262.4229 15.08842618 76075,6917.872,95.437,540.743,538.732,0.0
53541.0,STARLINK-4485,PAYLOAD,2023-12-31 09:33:11,15.08832781,0.0001555,53.2176,62.2771,107.2233,252.8929,1.3385e-05,-7.5e-07,0.0,0 STARLINK-4485,1 53541U 22101Q   23365.39804711 -.00000075  00000-0  13385-4 0  9993,2 53541  53.2176  62.2771 0001555 107.2233 252.8929 15.08832781 75500,6917.902,95.438,540.843,538.692,0.0
53541.0,STARLINK-4485,PAYLOAD,2024-01-01 10:59:21,15.08841405,0.0001422,53.2178,57.5201,90.9892,269.1263,4.8886e-05,4.9e-06,0.0,0 STARLINK-4485,1 53541U 22101Q   24001.45788409  .00000490  00000-0  48886-4 0  9997,2 53541  53.2178  57.5201 0001422  90.9892 269.1263 15.08841405 75661,6917.876,95.437,540.725,538.757,0.0
53541.0,STARLINK-4485,PAYLOAD,2024-01-01 12:34:44,15.08841728,0.0001427,53.2178,57.2227,91.6391,268.4765,5.0656e-05,5.18e-06,0.0,0 STARLINK-4485,1 53541U 22101Q   24001.52412364  .00000518  00000-0  50656-4 0  9998,2 53541  53.2178  57.2227 0001427  91.6391 268.4765 15.08841728 76368,6917.875,95.437,540.727,538.753,0.0
53541.0,STARLINK-4485,PAYLOAD,2024-01-02 09:14:45,15.08821411,0.0001602,53.2183,53.3613,94.5412,265.5763,0.000276,4.105e-05,0.0,0 STARLINK-4485,1 53541U 22101Q   24002.38525078  .00004105  00000-0  27600-3 0  9998,2 53541  53.2183  53.3613 0001602  94.5412 265.5763 15.08821411 75802,6917.937,95.439,540.91,538.694,0.0
53541.0,STARLINK-4485,PAYLOAD,2024-01-03 02:44:00,15.08838914,0.0001621,53.2183,50.09,88.7535,271.3643,1.5941e-05,-3.4e-07,0.0,0 STARLINK-4485,1 53541U 22101Q   24003.11389084 -.00000034  00000-0  15941-4 0  9999,2 53541  53.2183  50.0900 0001621  88.7535 271.3643 15.08838914 75917,6917.884,95.438,540.87,538.627,0.0
53541.0,STARLINK-4485,PAYLOAD,2024-01-03 12:16:18,15.08840965,0.0001568,53.2178,48.3038,86.0737,274.0435,2.9111e-05,1.75e-06,0.0,0 STARLINK-4485,1 53541U 22101Q   24003.51132937  .00000175  00000-0  29111-4 0  9995,2 53541  53.2178  48.3038 0001568  86.0737 274.0435 15.08840965 76669,6917.877,95.437,540.827,538.658,0.0
53541.0,STARLINK-4485,PAYLOAD,2024-01-04 08:56:19,15.08843707,0.0001713,53.2176,44.4391,76.5518,283.5665,8.3055e-05,1.034e-05,0.0,0 STARLINK-4485,1 53541U 22101Q   24004.37244619  .00001034  00000-0  83055-4 0  9993,2 53541  53.2176  44.4391 0001713  76.5518 283.5665 15.08843707 76105,6917.869,95.437,540.919,538.549,0.0
53541.0,STARLINK-4485,PAYLOAD,2024-01-05 11:57:52,15.08843668,0.0001544,53.2165,39.384,84.1784,275.9385,-1.149e-05,-4.71e-06,0.0,0 STARLINK-4485,1 53541U 22101Q   24005.49852744 -.00000471  00000-0 -11490-4 0  9991,2 53541  53.2165  39.3840 0001544  84.1784 275.9385 15.08843668 76275,6917.869,95.437,540.802,538.666,0.0
53541.0,STARLINK-4485,PAYLOAD,2024-01-06 08:37:53,15.08841897,0.0001536,53.217,35.5171,104.0146,256.1017,-4.7459e-06,-3.64e-06,0.0,0 STARLINK-4485,1 53541U 22101Q   24006.35964753 -.00000364  00000-0 -47459-5 0  9997,2 53541  53.2170  35.5171 0001536 104.0146 256.1017 15.08841897 77097,6917.875,95.437,540.802,538.677,0.0
53541.0,STARLINK-4485,PAYLOAD,2024-01-07 02:07:08,15.0883302,0.000144,53.2169,32.2455,90.5995,269.5163,-6.3056e-06,-3.88e-06,0.0,0 STARLINK-4485,1 53541U 22101Q   24007.08829398 -.00000388  00000-0 -63056-5 0  9990,2 53541  53.2169  32.2455 0001440  90.5995 269.5163 15.08833020 76514,6917.902,95.438,540.763,538.771,0.0
53541.0,STARLINK-4485,PAYLOAD,2024-01-07 08:28:40,15.08837551,0.0001455,53.2174,31.0581,97.7967,262.319,8.9471e-06,-1.46e-06,0.0,0 STARLINK-4485,1 53541U 22101Q   24007.35325154 -.00000146  00000-0  89471-5 0  9991,2 53541  53.2174  31.0581 0001455  97.7967 262.3190 15.08837551 77246,6917.888,95.438,540.759,538.746,0.0
53541.0,STARLINK-4485,PAYLOAD,2024-01-08 06:44:04,15.0884127,0.0001611,53.2184,26.899,111.2454,248.8711,5.0377e-05,5.14e-06,0.0,0 STARLINK-4485,1 53541U 22101Q   24008.28060891  .00000514  00000-0  50377-4 0  9998,2 53541  53.2184  26.8990 0001611 111.2454 248.8711 15.08841270 76699,6917.877,95.437,540.856,538.627,0.0
53541.0,STARLINK-4485,PAYLOAD,2024-01-09 04:59:29,15.08831032,0.0001576,53.2184,22.7352,110.0922,250.024,2.0137e-05,3.2e-07,0.0,0 STARLINK-4485,1 53541U 22101Q   24009.20797822  .00000032  00000-0  20137-4 0  9998,2 53541  53.2184  22.7352 0001576 110.0922 250.0240 15.08831032 76836,6917.908,95.438,540.863,538.683,0.0
53541.0,STARLINK-4485,PAYLOAD,2024-01-09 09:45:38,15.08835145,0.0001437,53.2176,21.8384,72.5138,287.6012,5.0588e-05,5.17e-06,0.0,0 STARLINK-4485,1 53541U 22101Q   24009.40669648  .00000517  00000-0  50588-4 0  9995,2 53541  53.2176  21.8384 0001437  72.5138 287.6012 15.08835145 77551,6917.895,95.438,540.754,538.766,0.0
53541.0,STARLINK-4485,PAYLOAD,2024-01-10 08:01:02,15.08842604,0.0001588,53.2184,17.678,83.0707,277.0466,3.6824e-05,2.98e-06,0.0,0 STARLINK-4485,1 53541U 22101Q   24010.33405421  .00000298  00000-0  36824-4 0  9999,2 53541  53.2184  17.6780 0001588  83.0707 277.0466 15.08842604 77003,6917.872,95.437,540.836,538.639,0.0
53541.0,STARLINK-4485,PAYLOAD,2024-01-11 09:27:12,15.08844904,0.0001585,53.2187,12.9182,78.5619,281.5551,0.00017618,2.517e-05,0.0,0 STARLINK-4485,1 53541U 22101Q   24011.39388901  .00002517  00000-0  17618-3 0  9994,2 53541  53.2187  12.9182 0001585  78.5619 281.5551 15.08844904 77165,6917.865,95.437,540.827,538.634,0.0
53541.0,STARLINK-4485,PAYLOAD,2024-01-11 23:45:41,15.08833343,0.0001558,53.2186,10.2354,128.2294,231.8839,-1.8164e-05,-5.77e-06,0.0,0 STARLINK-4485,1 53541U 22101Q   24011.99006124 -.00000577  00000-0 -18164-4 0  9998,2 53541  53.2186  10.2354 0001558 128.2294 231.8839 15.08833343 77250,6917.901,95.438,540.844,538.688,0.0
53541.0,STARLINK-4485,PAYLOAD,2024-01-12 09:17:59,15.08847062,0.0001698,53.219,8.4563,92.5057,267.613,2.1359e-05,5.2e-07,0.0,0 STARLINK-4485,1 53541U 22101Q   24012.38749203  .00000052  00000-0  21359-4 0  9990,2 53541  53.2190   8.4563 0001698  92.5057 267.6130 15.08847062 77312,6917.859,95.437,540.898,538.549,0.0
53541.0,STARLINK-4485,PAYLOAD,2024-01-13 04:22:37,15.08843512,0.0001769,53.2203,4.8849,77.8582,282.2608,-2.7717e-05,-7.29e-06,0.0,0 STARLINK-4485,1 53541U 22101Q   24013.18237687 -.00000729  00000-0 -27717-4 0  9994,2 53541  53.2203   4.8849 0001769  77.8582 282.2608 15.08843512 77434,6917.87,95.437,540.958,538.511,0.0
53541.0,STARLINK-4485,PAYLOAD,2024-01-13 09:08:46,15.08855649,0.0002003,53.2205,3.9913,116.1343,243.9856,-0.00014811,-2.646e-05,0.0,0 STARLINK-4485,1 53541U 22101Q   24013.38109105 -.00002646  00000-0 -14811-3 0  9999,2 53541  53.2205   3.9913 0002003 116.1343 243.9856 15.08855649 78155,6917.833,95.437,541.083,538.312,0.0
